TESS = 2018-038A = NORAD 43435
1 43435U 18038A   23001.49919926  .00000000  00000-0  00000-0 2 18165
2 43435 036.5281 080.0462 5281119 174.7769 249.2045 00.07677323    05

# Worst residual: 9.13 km
# MJD 59946.000000 (2023 Jan  2  0:00)
TESS = 2018-038A = NORAD 43435
1 43435U 18038A   23002.49919926  .00000000  00000-0  00000-0 2 18166
2 43435 036.5933 080.1048 5287816 174.7882 276.8323 00.07683609    05

# Worst residual: 9.55 km
# MJD 59947.000000 (2023 Jan  3  0:00)
TESS = 2018-038A = NORAD 43435
1 43435U 18038A   23003.49919926  .00000000  00000-0  00000-0 2 18167
2 43435 036.6379 080.1767 5297547 174.9407 304.3753 00.07704164    09

# Worst residual: 5.45 km
# MJD 59948.000000 (2023 Jan  4  0:00)
TESS = 2018-038A = NORAD 43435
1 43435U 18038A   23004.49919926  .00000000  00000-0  00000-0 2 18168
2 43435 036.6465 080.2088 5302015 175.1212 332.0292 00.07723074    03

# Worst residual: 5.26 km
# MJD 59949.000000 (2023 Jan  5  0:00)
TESS = 2018-038A = NORAD 43435
1 43435U 18038A   23005.49919926  .00000000  00000-0  00000-0 2 18169
2 43435 036.6505 080.2019 5312289 175.1119 359.8437 00.07699855    09

# Worst residual: 10.11 km
# MJD 59950.000000 (2023 Jan  6  0:00)
TESS = 2018-038A = NORAD 43435
1 43435U 18038A   23006.49919926  .00000000  00000-0  00000-0 2 18160
2 43435 036.6586 080.2118 5316969 174.9805 027.5763 00.07696028    06

# Worst residual: 10.21 km
# MJD 59951.000000 (2023 Jan  7  0:00)
TESS = 2018-038A = NORAD 43435
1 43435U 18038A   23007.49919926  .00000000  00000-0  00000-0 2 18161
2 43435 036.6580 080.2263 5314635 174.6803 055.6031 00.07733286    02

# Worst residual: 8.90 km
# MJD 59952.000000 (2023 Jan  8  0:00)
TESS = 2018-038A = NORAD 43435
1 43435U 18038A   23008.49919926  .00000000  00000-0  00000-0 2 18162
2 43435 036.6585 080.2256 5315199 174.4312 083.8380 00.07764258    01

# Worst residual: 6.93 km
# MJD 59953.000000 (2023 Jan  9  0:00)
TESS = 2018-038A = NORAD 43435
1 43435U 18038A   23009.49919926  .00000000  00000-0  00000-0 2 18163
2 43435 036.6692 080.2111 5314896 174.2853 112.1329 00.07781274    07

# Worst residual: 4.71 km
# MJD 59954.000000 (2023 Jan 10  0:00)
TESS = 2018-038A = NORAD 43435
1 43435U 18038A   23010.49919926  .00000000  00000-0  00000-0 2 18165
2 43435 036.6957 080.1891 5311753 174.2160 140.3962 00.07786646    09

# Worst residual: 4.19 km
# MJD 59955.000000 (2023 Jan 11  0:00)
TESS = 2018-038A = NORAD 43435
1 43435U 18038A   23011.49919926  .00000000  00000-0  00000-0 2 18166
2 43435 036.7384 080.1693 5306239 174.1919 168.5605 00.07784527    00

# Worst residual: 4.67 km
# MJD 59956.000000 (2023 Jan 12  0:00)
TESS = 2018-038A = NORAD 43435
1 43435U 18038A   23012.49919926  .00000000  00000-0  00000-0 2 18167
2 43435 036.7943 080.1607 5299887 174.1897 196.5991 00.07779787    02

# Worst residual: 4.72 km
# MJD 59957.000000 (2023 Jan 13  0:00)
TESS = 2018-038A = NORAD 43435
1 43435U 18038A   23013.49919926  .00000000  00000-0  00000-0 2 18168
2 43435 036.8587 080.1700 5294936 174.2066 224.5092 00.07777585    08

# Worst residual: 6.42 km
# MJD 59958.000000 (2023 Jan 14  0:00)
TESS = 2018-038A = NORAD 43435
1 43435U 18038A   23014.49919926  .00000000  00000-0  00000-0 2 18169
2 43435 036.9223 080.2006 5292720 174.2578 252.3172 00.07782686    09

# Worst residual: 7.95 km
# MJD 59959.000000 (2023 Jan 15  0:00)
TESS = 2018-038A = NORAD 43435
1 43435U 18038A   23015.49919926  .00000000  00000-0  00000-0 2 18160
2 43435 036.9723 080.2468 5293086 174.3701 280.0875 00.07798901    06

# Worst residual: 7.62 km
# MJD 59960.000000 (2023 Jan 16  0:00)
TESS = 2018-038A = NORAD 43435
1 43435U 18038A   23016.49919926  .00000000  00000-0  00000-0 2 18161
2 43435 037.0014 080.2970 5294338 174.5585 307.9293 00.07826852    02

# Worst residual: 4.56 km
# MJD 59961.000000 (2023 Jan 17  0:00)
TESS = 2018-038A = NORAD 43435
1 43435U 18038A   23017.49919926  .00000000  00000-0  00000-0 2 18162
2 43435 037.0057 080.3153 5294776 174.7501 336.0022 00.07850412    01

# Worst residual: 9.97 km
# MJD 59962.000000 (2023 Jan 18  0:00)
TESS = 2018-038A = NORAD 43435
1 43435U 18038A   23018.49919926  .00000000  00000-0  00000-0 2 18163
2 43435 037.0272 080.2903 5308179 174.7263 004.2631 00.07817749    06

# Worst residual: 8.54 km
# MJD 59963.000000 (2023 Jan 19  0:00)
TESS = 2018-038A = NORAD 43435
1 43435U 18038A   23019.49919926  .00000000  00000-0  00000-0 2 18164
2 43435 037.0496 080.3266 5298928 174.4756 032.6139 00.07853641    00

# Worst residual: 7.54 km
# MJD 59964.000000 (2023 Jan 20  0:00)
TESS = 2018-038A = NORAD 43435
1 43435U 18038A   23020.49919926  .00000000  00000-0  00000-0 2 18166
2 43435 037.0512 080.3207 5287677 174.3276 061.2210 00.07886823    05

# Worst residual: 11.85 km
# MJD 59965.000000 (2023 Jan 21  0:00)
TESS = 2018-038A = NORAD 43435
1 43435U 18038A   23021.49919926  .00000000  00000-0  00000-0 2 18167
2 43435 037.0567 080.3073 5270779 174.3698 089.8140 00.07890798    03

# Worst residual: 15.58 km
# MJD 59966.000000 (2023 Jan 22  0:00)
TESS = 2018-038A = NORAD 43435
1 43435U 18038A   23022.49919926  .00000000  00000-0  00000-0 2 18168
2 43435 037.0466 080.3189 5242056 174.4671 118.3459 00.07876346    02

# Worst residual: 18.23 km
# MJD 59967.000000 (2023 Jan 23  0:00)
TESS = 2018-038A = NORAD 43435
1 43435U 18038A   23023.49919926  .00000000  00000-0  00000-0 2 18169
2 43435 037.0051 080.3489 5202519 174.5262 146.8107 00.07850123    03

# Worst residual: 19.21 km
# MJD 59968.000000 (2023 Jan 24  0:00)
TESS = 2018-038A = NORAD 43435
1 43435U 18038A   23024.49919926  .00000000  00000-0  00000-0 2 18160
2 43435 036.9306 080.3772 5157173 174.4969 175.2089 00.07817168    04

# Worst residual: 17.71 km
# MJD 59969.000000 (2023 Jan 25  0:00)
TESS = 2018-038A = NORAD 43435
1 43435U 18038A   23025.49919926  .00000000  00000-0  00000-0 2 18161
2 43435 036.8332 080.3842 5112888 174.3731 203.5254 00.07781890    01

# Worst residual: 15.67 km
# MJD 59970.000000 (2023 Jan 26  0:00)
TESS = 2018-038A = NORAD 43435
1 43435U 18038A   23026.49919926  .00000000  00000-0  00000-0 2 18162
2 43435 036.7378 080.3603 5075620 174.1761 231.7515 00.07747607    09

# Worst residual: 10.80 km
# MJD 59971.000000 (2023 Jan 27  0:00)
TESS = 2018-038A = NORAD 43435
1 43435U 18038A   23027.49919926  .00000000  00000-0  00000-0 2 18163
2 43435 036.6586 080.3121 5051182 173.9717 259.8360 00.07719372    06

# Worst residual: 6.61 km
# MJD 59972.000000 (2023 Jan 28  0:00)
TESS = 2018-038A = NORAD 43435
1 43435U 18038A   23028.49919926  .00000000  00000-0  00000-0 2 18164
2 43435 036.6065 080.2521 5039886 173.8376 287.7439 00.07701286    00

# Worst residual: 3.12 km
# MJD 59973.000000 (2023 Jan 29  0:00)
TESS = 2018-038A = NORAD 43435
1 43435U 18038A   23029.49919926  .00000000  00000-0  00000-0 2 18165
2 43435 036.5822 080.1950 5037398 173.8269 315.4911 00.07696478    02

# Worst residual: 3.96 km
# MJD 59974.000000 (2023 Jan 30  0:00)
TESS = 2018-038A = NORAD 43435
1 43435U 18038A   23030.49919926  .00000000  00000-0  00000-0 2 18167
2 43435 036.5812 080.1494 5038278 173.8677 343.2016 00.07695304    07

# Worst residual: 5.56 km
# MJD 59975.000000 (2023 Jan 31  0:00)
TESS = 2018-038A = NORAD 43435
1 43435U 18038A   23031.49919926  .00000000  00000-0  00000-0 2 18168
2 43435 036.5934 080.1396 5046457 173.8335 010.8903 00.07676085    09

# Worst residual: 10.39 km
# MJD 59976.000000 (2023 Feb  1  0:00)
TESS = 2018-038A = NORAD 43435
1 43435U 18038A   23032.49919926  .00000000  00000-0  00000-0 2 18169
2 43435 036.5963 080.1465 5046481 173.6511 038.6354 00.07690535    03

# Worst residual: 12.16 km
# MJD 59977.000000 (2023 Feb  2  0:00)
TESS = 2018-038A = NORAD 43435
1 43435U 18038A   23033.49919926  .00000000  00000-0  00000-0 2 18160
2 43435 036.5968 080.1443 5046754 173.3142 066.7201 00.07729452    08

# Worst residual: 12.97 km
# MJD 59978.000000 (2023 Feb  3  0:00)
TESS = 2018-038A = NORAD 43435
1 43435U 18038A   23034.49919926  .00000000  00000-0  00000-0 2 18161
2 43435 036.5993 080.1388 5050502 172.9812 095.0828 00.07766373    02

# Worst residual: 13.07 km
# MJD 59979.000000 (2023 Feb  4  0:00)
TESS = 2018-038A = NORAD 43435
1 43435U 18038A   23035.49919926  .00000000  00000-0  00000-0 2 18162
2 43435 036.6013 080.1361 5054054 172.7061 123.6139 00.07792391    09

# Worst residual: 12.47 km
# MJD 59980.000000 (2023 Feb  5  0:00)
TESS = 2018-038A = NORAD 43435
1 43435U 18038A   23036.49919926  .00000000  00000-0  00000-0 2 18163
2 43435 036.5998 080.1371 5054730 172.4854 152.2162 00.07805674    02

# Worst residual: 11.13 km
# MJD 59981.000000 (2023 Feb  6  0:00)
TESS = 2018-038A = NORAD 43435
1 43435U 18038A   23037.49919926  .00000000  00000-0  00000-0 2 18164
2 43435 036.5935 080.1394 5051851 172.2995 180.8068 00.07807344    01

# Worst residual: 9.19 km
# MJD 59982.000000 (2023 Feb  7  0:00)
TESS = 2018-038A = NORAD 43435
1 43435U 18038A   23038.49919926  .00000000  00000-0  00000-0 2 18165
2 43435 036.5826 080.1401 5046316 172.1316 209.3193 00.07800063    02

# Worst residual: 6.84 km
# MJD 59983.000000 (2023 Feb  8  0:00)
TESS = 2018-038A = NORAD 43435
1 43435U 18038A   23039.49919926  .00000000  00000-0  00000-0 2 18166
2 43435 036.5676 080.1361 5040009 171.9767 237.7064 00.07787470    08

# Worst residual: 4.37 km
# MJD 59984.000000 (2023 Feb  9  0:00)
TESS = 2018-038A = NORAD 43435
1 43435U 18038A   23040.49919926  .00000000  00000-0  00000-0 2 18168
2 43435 036.5492 080.1240 5035104 171.8464 265.9439 00.07773826    02

# Worst residual: 2.58 km
# MJD 59985.000000 (2023 Feb 10  0:00)
TESS = 2018-038A = NORAD 43435
1 43435U 18038A   23041.49919926  .00000000  00000-0  00000-0 2 18169
2 43435 036.5282 080.0972 5033138 171.7682 294.0380 00.07763178    03

# Worst residual: 5.58 km
# MJD 59986.000000 (2023 Feb 11  0:00)
TESS = 2018-038A = NORAD 43435
1 43435U 18038A   23042.49919926  .00000000  00000-0  00000-0 2 18160
2 43435 036.5095 080.0420 5034237 171.7626 322.0358 00.07756094    08
